STARLINK-34421          
1 64459U 25130X   25180.51849091 -.00408400  00000+0 -19748-2 0  9990
2 64459  53.1540 195.0242 0000341  90.7736 269.3327 15.82839450  3001
STARLINK-34423          
1 64460U 25130Y   25180.51799501 -.00472084  00000+0 -23070-2 0  9994
2 64460  53.1542 195.0208 0001044  38.7220 321.3878 15.82770277  3021
STARLINK-34418          
1 64461U 25130Z   25180.51756501 -.00511207  00000+0 -25120-2 0  9997
2 64461  53.1543 195.0178 0000496  93.4122 266.6958 15.82752838  3009
STARLINK-34336          
1 64462U 25130AA  25180.51705661 -.00429580  00000+0 -20894-2 0  9994
2 64462  53.1541 195.0147 0000556  96.7089 263.3998 15.82767458  3023
STARLINK-34400          
1 64463U 25130AB  25180.51608886 -.00447063  00000+0 -21850-2 0  9995
2 64463  53.1540 195.0083 0000705 116.2938 243.8158 15.82707543  3018
STARLINK-34429          
1 64464U 25130AC  25180.32709490 -.00474183  00000+0 -22701-2 0  9997
2 64464  53.1541 195.9632 0001630  29.2393 330.8722 15.83205903  2977
STARLINK-34449          
1 64465U 25130AD  25180.51556659 -.00457989  00000+0 -22476-2 0  9990
2 64465  53.1542 195.0046 0000379 105.5101 254.5964 15.82649198  3016
COSMOS 2589             
1 64467U 25131A   25179.52397231 -.00000345  00000+0  00000+0 0  9996
2 64467   1.0680 280.5905 3659492 173.7744 114.9918  1.00255488    88
BREEZE-M R/B            
1 64468U 25131B   25173.80781051 -.00000145  00000+0  00000+0 0  9997
2 64468   1.4224 285.7735 3876101 171.5822 241.3112  1.04440359    39
CZ-3B R/B               
1 64470U 25132A   25171.34247384  .00000027  00000+0  00000+0 0  9992
2 64470  26.7023  94.2081 4807309 178.5577 286.0213  6.06457804    00
CHINASAT 9C             
1 64471U 25132B   25174.44696663  .00024482  11871-5  16405-2 0  9999
2 64471  27.6360  93.9323 7344542 181.4842 173.4852  2.23218496    78
STARLINK-34493          
1 64472U 25133A   25180.25002315 -.01179145  41013-3 -35889-2 0  9998
2 64472  53.1563 227.7289 0000625  87.6589 264.9213 15.91365591  2195
STARLINK-34492          
1 64473U 25133B   25180.25002315 -.01185985  41477-3 -35959-2 0  9990
2 64473  53.1563 227.7253 0000630  90.3102 263.9913 15.91441196  2197
STARLINK-34474          
1 64474U 25133C   25180.25002315 -.01197479  42244-3 -36159-2 0  9998
2 64474  53.1564 227.7216 0000677 102.5970 253.4375 15.91522618  2171
STARLINK-34523          
1 64475U 25133D   25180.25002315 -.01202284  42587-3 -36149-2 0  9999
2 64475  53.1562 227.7178 0000587  84.2389 273.7073 15.91606453  2177
STARLINK-34496          
1 64476U 25133E   25180.25002315 -.01212213  43261-3 -36305-2 0  9997
2 64476  53.1562 227.7140 0000642  85.6477 274.0298 15.91683948  2191
STARLINK-34375          
1 64477U 25133F   25180.25002315 -.01219783  43788-3 -36380-2 0  9994
2 64477  53.1562 227.7103 0000580  83.8417 277.6492 15.91765794  2191
STARLINK-34490          
1 64478U 25133G   25180.25002315 -.01238216  45069-3 -36632-2 0  9991
2 64478  53.1561 227.7029 0000544  91.5078 273.5413 15.91925336  2195
STARLINK-34528          
1 64479U 25133H   25180.25002315 -.01224197  44106-3 -36384-2 0  9990
2 64479  53.1563 227.7070 0000543  87.6881 275.3668 15.91834252  2177
STARLINK-34518          
1 64480U 25133J   25180.25002315 -.01248260  45774-3 -36768-2 0  9997
2 64480  53.1562 227.6986 0000579  98.5708 268.4429 15.92011356  2037
STARLINK-34526          
1 64481U 25133K   25180.25002315 -.01256775  46381-3 -36864-2 0  9990
2 64481  53.1563 227.6949 0000550  92.0879 276.7171 15.92093579  2083
STARLINK-34527          
1 64482U 25133L   25180.25002315 -.01271044  47382-3 -37126-2 0  9991
2 64482  53.1561 227.6912 0000580  85.5257 285.0643 15.92176973  2191
STARLINK-34420          
1 64483U 25133M   25180.25002315 -.01280011  48032-3 -37226-2 0  9990
2 64483  53.1561 227.6872 0000594 105.4855 267.0295 15.92261928  2196
STARLINK-34509          
1 64484U 25133N   25180.25002315 -.01296269  49188-3 -37544-2 0  9999
2 64484  53.1560 227.6834 0000594  88.1515 286.1211 15.92343775  2195
STARLINK-34409          
1 64485U 25133P   25180.25002315 -.01306787  49956-3 -37696-2 0  9998
2 64485  53.1559 227.6799 0000575  82.7111 293.2962 15.92423130  2191
STARLINK-34520          
1 64486U 25133Q   25180.25002315 -.01318128  50791-3 -37860-2 0  9993
2 64486  53.1560 227.6758 0000596  87.3620 290.5385 15.92507483  2191
STARLINK-34477          
1 64487U 25133R   25180.25002315 -.01328140  51538-3 -37987-2 0  9999
2 64487  53.1561 227.6721 0000562  92.5085 287.2049 15.92590008  2194
STARLINK-34217          
1 64488U 25133S   25180.25002315 -.01336575  52176-3 -38072-2 0  9996
2 64488  53.1561 227.6683 0000573  92.5706 288.9365 15.92669811  2080
STARLINK-34307          
1 64489U 25133T   25180.25002315 -.01346954  52956-3 -38220-2 0  9990
2 64489  53.1559 227.6648 0000590  85.3953 297.7898 15.92745251  2174
STARLINK-34505          
1 64490U 25133U   25180.25002315 -.01347709  53049-3 -38094-2 0  9994
2 64490  53.1559 227.6609 0000676  88.7586 296.1785 15.92819049  2172
STARLINK-34530          
1 64491U 25133V   25180.25002315 -.01351086  53333-3 -38032-2 0  9996
2 64491  53.1559 227.6570 0000585  99.1388 287.6254 15.92898564  2170
STARLINK-34522          
1 64492U 25133W   25180.25002315 -.01370557  54791-3 -38408-2 0  9997
2 64492  53.1559 227.6531 0000667 103.2416 285.4103 15.92987000  2193
STARLINK-34462          
1 64493U 25133X   25180.25002315 -.01377081  55312-3 -38427-2 0  9998
2 64493  53.1559 227.6492 0000661  81.6628 308.8819 15.93069135  2193
STARLINK-34226          
1 64494U 25133Y   25180.25002315 -.01385665  55981-3 -38529-2 0  9991
2 64494  53.1557 227.6462 0000605  87.3307 304.7227 15.93138443  2034
STARLINK-34364          
1 64495U 25133Z   25180.58335648 -.01313446  50396-3 -37992-2 0  9992
2 64495  53.1553 225.9395 0000724  81.4331  66.9790 15.92371546  2248
STARLINK-34268          
1 64496U 25133AA  25180.25002315 -.01394963  56714-3 -38623-2 0  9994
2 64496  53.1560 227.6423 0000649  98.4519 295.5010 15.93220772  2194
STARLINK-34363          
1 64497U 25133AB  25180.25002315 -.01419406  58642-3 -38948-2 0  9997
2 64497  53.1558 227.6342 0000637  99.1753 298.6648 15.93395570  2197
STARLINK-34427          
1 64498U 25133AC  25180.25002315 -.01428181  59358-3 -39009-2 0  9992
2 64498  53.1558 227.6303 0000621 100.3094 299.5253 15.93484199  2188
KUIPER-00039            
1 64500U 25134A   25180.50002315 -.00020332  00000+0 -58722-3 0  9990
2 64500  51.8691 301.8498 0008819 132.9139 181.4985 15.34583674  1704
KUIPER-00040            
1 64501U 25134B   25180.50002315 -.00019188  00000+0 -56888-3 0  9999
2 64501  51.8671 301.8902 0011979 146.5401 148.0925 15.33686941  1700
KUIPER-00041            
1 64502U 25134C   25180.50002315 -.00018922  00000+0 -55446-3 0  9994
2 64502  51.8695 301.8738 0010641 142.7314 159.8083 15.34060660  1700
KUIPER-00042            
1 64503U 25134D   25180.50002315 -.00019619  00000+0 -57226-3 0  9997
2 64503  51.8667 301.8655 0010088 137.3154 169.5177 15.34236357  1705
KUIPER-00043            
1 64504U 25134E   25180.50002315 -.00019728  00000+0 -57087-3 0  9994
2 64504  51.8703 301.8533 0009433 130.6655 181.7489 15.34496166  2097
KUIPER-00044            
1 64505U 25134F   25180.25002315  .00057068  00000+0  17131-2 0  9999
2 64505  51.8655 303.0821 0012594 139.0132 218.8052 15.33820147  1673
KUIPER-00046            
1 64506U 25134G   25180.50002315 -.00020009  00000+0 -58540-3 0  9995
2 64506  51.8681 301.8693 0010667 135.3689 169.4934 15.34148237  1709
KUIPER-00047            
1 64507U 25134H   25180.50002315 -.00019083  00000+0 -56244-3 0  9995
2 64507  51.8641 301.8822 0011291 144.6041 153.9769 15.33876082  1708
KUIPER-00048            
1 64508U 25134J   25180.25002315  .00056307  00000+0  15958-2 0  9992
2 64508  51.8777 302.9932 0003979 122.3654 274.7748 15.35702332  1673
KUIPER-00049            
1 64509U 25134K   25180.25002315  .00055826  00000+0  16279-2 0  9995
2 64509  51.8724 303.0391 0008011 130.2806 247.8362 15.34790698  2110
KUIPER-00050            
1 64510U 25134L   25180.50002315 -.00020275  00000+0 -58286-3 0  9992
2 64510  51.8736 301.8409 0008240 130.8507 186.8335 15.34733372  1701
KUIPER-00051            
1 64511U 25134M   25180.50002315 -.00020687  00000+0 -58718-3 0  9990
2 64511  51.8742 301.8188 0006543 126.5356 201.6203 15.35158440  2092
KUIPER-00052            
1 64512U 25134N   25180.58335648 -.00015051  00000+0 -42123-3 0  9999
2 64512  51.8767 301.4056 0005250 126.2522 307.2307 15.35361720  1720
KUIPER-00053            
1 64513U 25134P   25180.50002315 -.00023699  00000+0 -65483-3 0  9995
2 64513  51.8783 301.7694 0002946  99.7854 248.5442 15.36100939  1700
KUIPER-00054            
1 64514U 25134Q   25180.50002315 -.00021082  00000+0 -58612-3 0  9996
2 64514  51.8771 301.7867 0003763 111.8004 230.1994 15.35831595  2114
KUIPER-00055            
1 64515U 25134R   25180.50002315 -.00024116  00000+0 -65627-3 0  9992
2 64515  51.8782 301.7488 0001322  66.7091 292.1471 15.36587785  2027
KUIPER-00056            
1 64516U 25134S   25180.25002315  .00055477  00000+0  15789-2 0  9990
2 64516  51.8751 303.0037 0004501 123.9109 270.5486 15.35575385  1675
KUIPER-00057            
1 64517U 25134T   25180.50002315 -.00019305  00000+0 -55096-3 0  9997
2 64517  51.8712 301.8311 0007079 128.8758 194.4188 15.34935489  1825
KUIPER-00058            
1 64518U 25134U   25180.25002315  .00056003  00000+0  16102-2 0  9998
2 64518  51.8734 303.0194 0005873 128.9002 258.6784 15.35245675  1676
KUIPER-00059            
1 64519U 25134V   25179.91670139  .00004126  00000+0  12535-3 0  9991
2 64519  51.8784 304.5699 0001976  83.0556 282.9986 15.36337567  1300
KUIPER-00060            
1 64520U 25134W   25180.50002315 -.00023927  00000+0 -65933-3 0  9997
2 64520  51.8779 301.7671 0002938  85.9148 264.3970 15.36191244  1703
